[{"OBJECT_NAME":"ONEWEB-0057","OBJECT_ID":"2020-008AF","EPOCH":"2025-12-08T06:05:28.193856","MEAN_MOTION":13.10338433,"ECCENTRICITY":0.00015141,"INCLINATION":87.8805,"RA_OF_ASC_NODE":74.3364,"ARG_OF_PERICENTER":113.1187,"MEAN_ANOMALY":247.01,"EPHEMERIS_TYPE":0,"CLASSIFICATION_TYPE":"U","NORAD_CAT_ID":45160,"ELEMENT_SET_NO":999,"REV_AT_EPOCH":28334,"BSTAR":0.0020431101,"MEAN_MOTION_DOT":7.26e-6,"MEAN_MOTION_DDOT":0},{"OBJECT_NAME":"ONEWEB-0058","OBJECT_ID":"2020-008AG","EPOCH":"2025-12-08T07:36:22.756320","MEAN_MOTION":13.10376146,"ECCENTRICITY":0.0001679,"INCLINATION":87.8811,"RA_OF_ASC_NODE":74.3348,"ARG_OF_PERICENTER":94.9317,"MEAN_ANOMALY":265.2002,"EPHEMERIS_TYPE":0,"CLASSIFICATION_TYPE":"U","NORAD_CAT_ID":45161,"ELEMENT_SET_NO":999,"REV_AT_EPOCH":28342,"BSTAR":0.0012793127,"MEAN_MOTION_DOT":4.59e-6,"MEAN_MOTION_DDOT":0},{"OBJECT_NAME":"ONEWEB-0059","OBJECT_ID":"2020-008AH","EPOCH":"2025-12-08T07:31:22.365984","MEAN_MOTION":13.10378458,"ECCENTRICITY":0.00016634,"INCLINATION":87.8811,"RA_OF_ASC_NODE":74.3355,"ARG_OF_PERICENTER":102.9113,"MEAN_ANOMALY":257.22,"EPHEMERIS_TYPE":0,"CLASSIFICATION_TYPE":"U","NORAD_CAT_ID":45162,"ELEMENT_SET_NO":999,"REV_AT_EPOCH":28332,"BSTAR":0.00076533204,"MEAN_MOTION_DOT":2.8e-6,"MEAN_MOTION_DDOT":0},{"OBJECT_NAME":"ONEWEB-0062","OBJECT_ID":"2020-008AJ","EPOCH":"2025-12-08T06:18:30.599424","MEAN_MOTION":13.10374538,"ECCENTRICITY":0.00017038,"INCLINATION":87.8798,"RA_OF_ASC_NODE":74.3216,"ARG_OF_PERICENTER":88.0827,"MEAN_ANOMALY":272.0495,"EPHEMERIS_TYPE":0,"CLASSIFICATION_TYPE":"U","NORAD_CAT_ID":45163,"ELEMENT_SET_NO":999,"REV_AT_EPOCH":28318,"BSTAR":0.00666708,"MEAN_MOTION_DOT":2.341e-5,"MEAN_MOTION_DDOT":0},{"OBJECT_NAME":"ONEWEB-0065","OBJECT_ID":"2020-008AK","EPOCH":"2025-12-08T07:02:31.374816","MEAN_MOTION":13.10374178,"ECCENTRICITY":0.00015036,"INCLINATION":87.8808,"RA_OF_ASC_NODE":74.3315,"ARG_OF_PERICENTER":117.4135,"MEAN_ANOMALY":242.7145,"EPHEMERIS_TYPE":0,"CLASSIFICATION_TYPE":"U","NORAD_CAT_ID":45164,"ELEMENT_SET_NO":999,"REV_AT_EPOCH":28288,"BSTAR":-0.0015108989,"MEAN_MOTION_DOT":-5.15e-6,"MEAN_MOTION_DDOT":0},{"OBJECT_NAME":"ONEWEB-0066","OBJECT_ID":"2020-020A","EPOCH":"2025-12-08T06:03:06.927264","MEAN_MOTION":13.11417185,"ECCENTRICITY":0.00019476,"INCLINATION":87.8867,"RA_OF_ASC_NODE":59.0851,"ARG_OF_PERICENTER":106.2825,"MEAN_ANOMALY":253.8518,"EPHEMERIS_TYPE":0,"CLASSIFICATION_TYPE":"U","NORAD_CAT_ID":45424,"ELEMENT_SET_NO":999,"REV_AT_EPOCH":27765,"BSTAR":-0.0017549045,"MEAN_MOTION_DOT":-6.09e-6,"MEAN_MOTION_DDOT":0},{"OBJECT_NAME":"ONEWEB-0067","OBJECT_ID":"2020-020B","EPOCH":"2025-12-08T06:57:03.297600","MEAN_MOTION":13.11416144,"ECCENTRICITY":0.00017652,"INCLINATION":87.8866,"RA_OF_ASC_NODE":58.9807,"ARG_OF_PERICENTER":107.0962,"MEAN_ANOMALY":253.0359,"EPHEMERIS_TYPE":0,"CLASSIFICATION_TYPE":"U","NORAD_CAT_ID":45425,"ELEMENT_SET_NO":999,"REV_AT_EPOCH":27771,"BSTAR":0.0017815273,"MEAN_MOTION_DOT":6.44e-6,"MEAN_MOTION_DDOT":0},{"OBJECT_NAME":"ONEWEB-0080","OBJECT_ID":"2020-020C","EPOCH":"2025-12-08T05:20:24.417312","MEAN_MOTION":13.11414902,"ECCENTRICITY":0.00018944,"INCLINATION":87.8861,"RA_OF_ASC_NODE":59.0918,"ARG_OF_PERICENTER":94.3254,"MEAN_ANOMALY":265.809,"EPHEMERIS_TYPE":0,"CLASSIFICATION_TYPE":"U","NORAD_CAT_ID":45426,"ELEMENT_SET_NO":999,"REV_AT_EPOCH":27767,"BSTAR":0.00073506682,"MEAN_MOTION_DOT":2.73e-6,"MEAN_MOTION_DDOT":0},{"OBJECT_NAME":"ONEWEB-0090","OBJECT_ID":"2020-020D","EPOCH":"2025-12-08T05:48:28.000800","MEAN_MOTION":13.11417587,"ECCENTRICITY":0.00016542,"INCLINATION":87.8861,"RA_OF_ASC_NODE":59.0892,"ARG_OF_PERICENTER":101.483,"MEAN_ANOMALY":258.6484,"EPHEMERIS_TYPE":0,"CLASSIFICATION_TYPE":"U","NORAD_CAT_ID":45427,"ELEMENT_SET_NO":999,"REV_AT_EPOCH":27764,"BSTAR":-0.0011318906,"MEAN_MOTION_DOT":-3.88e-6,"MEAN_MOTION_DDOT":0},{"OBJECT_NAME":"ONEWEB-0061","OBJECT_ID":"2020-020E","EPOCH":"2025-12-08T06:34:39.622080","MEAN_MOTION":13.1142035,"ECCENTRICITY":0.00017096,"INCLINATION":87.887,"RA_OF_ASC_NODE":59.0643,"ARG_OF_PERICENTER":103.9038,"MEAN_ANOMALY":256.228,"EPHEMERIS_TYPE":0,"CLASSIFICATION_TYPE":"U","NORAD_CAT_ID":45428,"ELEMENT_SET_NO":999,"REV_AT_EPOCH":27760,"BSTAR":0.00082223004,"MEAN_MOTION_DOT":3.04e-6,"MEAN_MOTION_DDOT":0},{"OBJECT_NAME":"ONEWEB-0081","OBJECT_ID":"2020-020F","EPOCH":"2025-12-08T06:07:59.711808","MEAN_MOTION":13.11417066,"ECCENTRICITY":0.00019008,"INCLINATION":87.8869,"RA_OF_ASC_NODE":59.0836,"ARG_OF_PERICENTER":106.8273,"MEAN_ANOMALY":253.3063,"EPHEMERIS_TYPE":0,"CLASSIFICATION_TYPE":"U","NORAD_CAT_ID":45429,"ELEMENT_SET_NO":999,"REV_AT_EPOCH":27771,"BSTAR":-0.001698136,"MEAN_MOTION_DOT":-5.89e-6,"MEAN_MOTION_DDOT":0},{"OBJECT_NAME":"ONEWEB-0069","OBJECT_ID":"2020-020G","EPOCH":"2025-12-08T05:52:07.330656","MEAN_MOTION":13.11415255,"ECCENTRICITY":0.00017879,"INCLINATION":87.8866,"RA_OF_ASC_NODE":59.0828,"ARG_OF_PERICENTER":105.0082,"MEAN_ANOMALY":255.1244,"EPHEMERIS_TYPE":0,"CLASSIFICATION_TYPE":"U","NORAD_CAT_ID":45430,"ELEMENT_SET_NO":999,"REV_AT_EPOCH":27764,"BSTAR":-0.0011424185,"MEAN_MOTION_DOT":-3.92e-6,"MEAN_MOTION_DDOT":0},{"OBJECT_NAME":"ONEWEB-0031","OBJECT_ID":"2020-020H","EPOCH":"2025-12-08T07:01:43.950720","MEAN_MOTION":13.1141699,"ECCENTRICITY":0.00016678,"INCLINATION":87.8857,"RA_OF_ASC_NODE":59.0968,"ARG_OF_PERICENTER":96.0507,"MEAN_ANOMALY":264.0811,"EPHEMERIS_TYPE":0,"CLASSIFICATION_TYPE":"U","NORAD_CAT_ID":45431,"ELEMENT_SET_NO":999,"REV_AT_EPOCH":27763,"BSTAR":0.0014270777,"MEAN_MOTION_DOT":5.18e-6,"MEAN_MOTION_DDOT":0},{"OBJECT_NAME":"ONEWEB-0027","OBJECT_ID":"2020-020J","EPOCH":"2025-12-08T06:00:39.168576","MEAN_MOTION":13.17651262,"ECCENTRICITY":0.00013901,"INCLINATION":87.9119,"RA_OF_ASC_NODE":43.8062,"ARG_OF_PERICENTER":91.9951,"MEAN_ANOMALY":268.1339,"EPHEMERIS_TYPE":0,"CLASSIFICATION_TYPE":"U","NORAD_CAT_ID":45432,"ELEMENT_SET_NO":999,"REV_AT_EPOCH":28121,"BSTAR":0.00010711175,"MEAN_MOTION_DOT":5.4e-7,"MEAN_MOTION_DDOT":0},{"OBJECT_NAME":"ONEWEB-0064","OBJECT_ID":"2020-020K","EPOCH":"2025-12-08T06:59:17.608128","MEAN_MOTION":13.11416596,"ECCENTRICITY":0.00015667,"INCLINATION":87.8856,"RA_OF_ASC_NODE":59.0869,"ARG_OF_PERICENTER":97.5149,"MEAN_ANOMALY":262.6157,"EPHEMERIS_TYPE":0,"CLASSIFICATION_TYPE":"U","NORAD_CAT_ID":45433,"ELEMENT_SET_NO":999,"REV_AT_EPOCH":27766,"BSTAR":0.0014527642,"MEAN_MOTION_DOT":5.28e-6,"MEAN_MOTION_DDOT":0},{"OBJECT_NAME":"ONEWEB-0018","OBJECT_ID":"2020-020L","EPOCH":"2025-12-08T05:55:47.507232","MEAN_MOTION":13.11418455,"ECCENTRICITY":0.00018776,"INCLINATION":87.8863,"RA_OF_ASC_NODE":59.0856,"ARG_OF_PERICENTER":102.0928,"MEAN_ANOMALY":258.0411,"EPHEMERIS_TYPE":0,"CLASSIFICATION_TYPE":"U","NORAD_CAT_ID":45434,"ELEMENT_SET_NO":999,"REV_AT_EPOCH":27760,"BSTAR":-0.0010758484,"MEAN_MOTION_DOT":-3.69e-6,"MEAN_MOTION_DDOT":0}]
