ONEWEB-0057             
1 45160U 20008AF  25342.25379854  .00000726  00000+0  20431-2 0  9991
2 45160  87.8805  74.3364 0001514 113.1187 247.0100 13.10338433283347
ONEWEB-0058             
1 45161U 20008AG  25342.31693005  .00000459  00000+0  12793-2 0  9991
2 45161  87.8811  74.3348 0001679  94.9317 265.2002 13.10376146283425
ONEWEB-0059             
1 45162U 20008AH  25342.31345331  .00000280  00000+0  76533-3 0  9993
2 45162  87.8811  74.3355 0001663 102.9113 257.2200 13.10378458283329
ONEWEB-0062             
1 45163U 20008AJ  25342.26285416  .00002341  00000+0  66671-2 0  9996
2 45163  87.8798  74.3216 0001703  88.0827 272.0495 13.10374538283181
ONEWEB-0065             
1 45164U 20008AK  25342.29341869 -.00000515  00000+0 -15109-2 0  9998
2 45164  87.8808  74.3315 0001503 117.4135 242.7145 13.10374178282883
ONEWEB-0066             
1 45424U 20020A   25342.25216351 -.00000609  00000+0 -17549-2 0  9998
2 45424  87.8867  59.0851 0001947 106.2825 253.8518 13.11417185277659
ONEWEB-0067             
1 45425U 20020B   25342.28962150  .00000644  00000+0  17815-2 0  9990
2 45425  87.8866  58.9807 0001765 107.0962 253.0359 13.11416144277713
ONEWEB-0080             
1 45426U 20020C   25342.22250483  .00000273  00000+0  73507-3 0  9993
2 45426  87.8861  59.0918 0001894  94.3254 265.8090 13.11414902277677
ONEWEB-0090             
1 45427U 20020D   25342.24199075 -.00000388  00000+0 -11319-2 0  9996
2 45427  87.8861  59.0892 0001654 101.4830 258.6484 13.11417587277649
ONEWEB-0061             
1 45428U 20020E   25342.27406970  .00000304  00000+0  82223-3 0  9994
2 45428  87.8870  59.0643 0001709 103.9038 256.2280 13.11420350277608
ONEWEB-0081             
1 45429U 20020F   25342.25555222 -.00000589  00000+0 -16981-2 0  9992
2 45429  87.8869  59.0836 0001900 106.8273 253.3063 13.11417066277716
ONEWEB-0069             
1 45430U 20020G   25342.24452929 -.00000392  00000+0 -11424-2 0  9992
2 45430  87.8866  59.0828 0001787 105.0082 255.1244 13.11415255277649
ONEWEB-0031             
1 45431U 20020H   25342.29286980  .00000518  00000+0  14271-2 0  9991
2 45431  87.8857  59.0968 0001667  96.0507 264.0811 13.11416990277638
ONEWEB-0027             
1 45432U 20020J   25342.25045334  .00000054  00000+0  10711-3 0  9995
2 45432  87.9119  43.8062 0001390  91.9951 268.1339 13.17651262281215
ONEWEB-0064             
1 45433U 20020K   25342.29117602  .00000528  00000+0  14528-2 0  9993
2 45433  87.8856  59.0869 0001566  97.5149 262.6157 13.11416596277667
ONEWEB-0018             
1 45434U 20020L   25342.24707763 -.00000369  00000+0 -10758-2 0  9998
2 45434  87.8863  59.0856 0001877 102.0928 258.0411 13.11418455277606
